ISS (NAUKA)             
1 49044U 21066A   24097.79603450  .00013368  00000+0  24208-3 0  9991
2 49044  51.6378 309.3664 0004664  42.3289 317.8059 15.49963256153228
FREGAT DEB              
1 49271U 11037PF  24097.53964377  .00022940  00000+0  60653-1 0  9998
2 49271  51.6295 192.8239 0942701 331.0692  24.0866 12.12588713126490
CSS (WENTIAN)           
1 53239U 22085A   24097.88200860  .00034368  00000+0  34223-3 0  9993
2 53239  41.4683 158.8362 0009136 335.7594  24.2816 15.64926998 94621
CSS (MENGTIAN)          
1 54216U 22143A   24097.88200860  .00034368  00000+0  34223-3 0  9994
2 54216  41.4683 158.8362 0009136 335.7594  24.2816 15.64926998 80813
ISS DEB                 
1 57212U 98067VP  24097.83684830  .00138076  00000+0  58947-3 0  9999
2 57212  51.6255 281.7552 0002531 237.1600 122.9160 15.84257547 44785
SHENZHOU-17 (SZ-17)     
1 58146U 23164A   24097.88200860  .00034368  00000+0  34223-3 0  9994
2 58146  41.4683 158.8362 0009136 335.7594  24.2816 15.64926998 22882
ISS DEB                 
1 58229U 98067WC  24097.83366176  .00089287  00000+0  73104-3 0  9999
2 58229  51.6332 299.1226 0002622 226.4517 133.6262 15.69764688 24399
PROGRESS-MS 25          
1 58460U 23184A   24097.79603450  .00013368  00000+0  24208-3 0  9996
2 58460  51.6378 309.3664 0004664  42.3289 317.8059 15.49963256 19513
BEAK                    
1 58612U 98067WD  24097.65982921  .00087444  00000+0  80690-3 0  9998
2 58612  51.6342 303.2257 0001319 198.3262 161.7687 15.66850258 17271
CLARK SAT-1 (AMBITIOUS) 
1 58613U 98067WE  24097.76679496  .00816607  30523-3  19001-2 0  9996
2 58613  51.6231 296.3501 0009475 254.7409 105.2552 15.96413857 17349
TIANZHOU-7              
1 58811U 24013A   24097.88200860  .00034368  00000+0  34223-3 0  9997
2 58811  41.4683 158.8362 0009136 335.7594  24.2816 15.64926998164653
CYGNUS NG-20            
1 58898U 24021A   24097.79603450  .00013368  00000+0  24208-3 0  9992
2 58898  51.6378 309.3664 0004664  42.3289 317.8059 15.49963256 10069
PROGRESS-MS 26          
1 58961U 24029A   24097.79603450  .00013368  00000+0  24208-3 0  9991
2 58961  51.6378 309.3664 0004664  42.3289 317.8059 15.49963256  7673
CREW DRAGON 8           
1 59097U 24042A   24097.79603450  .00013368  00000+0  24208-3 0  9997
2 59097  51.6378 309.3664 0004664  42.3289 317.8059 15.49963256  4873
DRAGON CRS-30           
1 59287U 24054A   24097.47365840  .00013997  00000+0  25315-3 0  9992
2 59287  51.6377 310.9635 0004661  41.5937 318.5405 15.49954506447420
SOYUZ-MS 25             
1 59294U 24055A   24097.47365840  .00013997  00000+0  25315-3 0  9991
2 59294  51.6377 310.9635 0004661  41.5937 318.5405 15.49954506447428
